XRISM                   
1 57800U 23137A   26069.82928417  .00006101  00000+0  34560-3 0  9998
2 57800  31.0015 276.2923 0007860  50.5132 309.6200 15.11516802137966
ACS3                    
1 59588U 24077B   26069.79404068  .00014119  00000+0  11362-1 0  9995
2 59588  97.2064  10.6574 0060397  73.9334 286.8469 13.89638857 94354
SZ-21 MODULE            
1 66515U 25246C   26069.39180920  .00046134  00000+0  39495-3 0  9997
2 66515  41.4733 199.0379 0001321 300.4317  59.6394 15.68612654 18188
